start=new Date('2022-07-07T00:00:00.000Z').valueOf();
sats=[{"EPOCH":"2022-07-06T13:24:24.873408","OBJECT_TYPE":"PAYLOAD","MEAN_MOTION_DDOT":"0.0000000000000","DECAY_DATE":null,"BSTAR":"0.00004675400000","MEAN_MOTION_DOT":"0.00000415","TLE_LINE2":"2 45381  53.0568  51.6866 0001568  85.1991 274.9177 15.06386865127718","OBJECT_ID":"2020-019X","ARG_OF_PERICENTER":"85.1991","TIME_SYSTEM":"UTC","CENTER_NAME":"EARTH","SEMIMAJOR_AXIS":"6925.389","RCS_SIZE":"LARGE","MEAN_ANOMALY":"274.9177","ECCENTRICITY":"0.00015680","RA_OF_ASC_NODE":"51.6866","MEAN_MOTION":"15.06386865","REF_FRAME":"TEME","PERIAPSIS":"546.168","GP_ID":"207537145","TLE_LINE1":"1 45381U 20019X   22187.55862122  .00000415  00000-0  46754-4 0  9994","SITE":"AFETR","INCLINATION":"53.0568","LAUNCH_DATE":"2020-03-18","OBJECT_NAME":"STARLINK-1258","EPHEMERIS_TYPE":"0","ELEMENT_SET_NO":"999","APOAPSIS":"548.340","REV_AT_EPOCH":"12771","MEAN_ELEMENT_THEORY":"SGP4","FILE":"3508782","CLASSIFICATION_TYPE":"U","PERIOD":"95.593","NORAD_CAT_ID":"45381","COUNTRY_CODE":"US"},{"MEAN_MOTION_DOT":"0.00002563","BSTAR":"0.00019097000000","OBJECT_ID":"2020-019Y","TLE_LINE2":"2 45382  53.0541  51.4741 0001470  77.4259 282.6894 15.06390178127548","TIME_SYSTEM":"UTC","ARG_OF_PERICENTER":"77.4259","CENTER_NAME":"EARTH","SEMIMAJOR_AXIS":"6925.379","RCS_SIZE":"LARGE","EPOCH":"2022-07-06T14:26:44.445120","OBJECT_TYPE":"PAYLOAD","MEAN_MOTION_DDOT":"0.0000000000000","DECAY_DATE":null,"SITE":"AFETR","INCLINATION":"53.0541","OBJECT_NAME":"STARLINK-1264","LAUNCH_DATE":"2020-03-18","EPHEMERIS_TYPE":"0","MEAN_ELEMENT_THEORY":"SGP4","REV_AT_EPOCH":"12754","ELEMENT_SET_NO":"999","APOAPSIS":"548.262","CLASSIFICATION_TYPE":"U","PERIOD":"95.593","NORAD_CAT_ID":"45382","FILE":"3508782","COUNTRY_CODE":"US","MEAN_ANOMALY":"282.6894","ECCENTRICITY":"0.00014700","MEAN_MOTION":"15.06390178","RA_OF_ASC_NODE":"51.4741","REF_FRAME":"TEME","PERIAPSIS":"546.226","GP_ID":"207535894","TLE_LINE1":"1 45382U 20019Y   22187.60190330  .00002563  00000-0  19097-3 0  9991"},{"INCLINATION":"53.0550","SITE":"AFETR","EPHEMERIS_TYPE":"0","LAUNCH_DATE":"2020-03-18","OBJECT_NAME":"STARLINK-1266","FILE":"3508782","PERIOD":"95.593","CLASSIFICATION_TYPE":"U","NORAD_CAT_ID":"45383","APOAPSIS":"548.266","ELEMENT_SET_NO":"999","REV_AT_EPOCH":"12768","MEAN_ELEMENT_THEORY":"SGP4","COUNTRY_CODE":"US","MEAN_ANOMALY":"267.7783","ECCENTRICITY":"0.00014770","REF_FRAME":"TEME","MEAN_MOTION":"15.06390294","RA_OF_ASC_NODE":"52.6190","GP_ID":"207536143","PERIAPSIS":"546.220","TLE_LINE1":"1 45383U 20019Z   22187.35220493 -.00000574  00000-0 -19639-4 0  9993","MEAN_MOTION_DOT":"-0.00000574","BSTAR":"-0.00001963900000","ARG_OF_PERICENTER":"92.3375","TIME_SYSTEM":"UTC","TLE_LINE2":"2 45383  53.0550  52.6190 0001477  92.3375 267.7783 15.06390294127687","OBJECT_ID":"2020-019Z","SEMIMAJOR_AXIS":"6925.378","RCS_SIZE":"LARGE","CENTER_NAME":"EARTH","OBJECT_TYPE":"PAYLOAD","EPOCH":"2022-07-06T08:27:10.505952","MEAN_MOTION_DDOT":"0.0000000000000","DECAY_DATE":null},{"CENTER_NAME":"EARTH","SEMIMAJOR_AXIS":"6925.361","RCS_SIZE":"LARGE","TLE_LINE2":"2 45384  53.0559  51.7676 0001553  84.6527 275.4639 15.06396072127714","OBJECT_ID":"2020-019AA","TIME_SYSTEM":"UTC","ARG_OF_PERICENTER":"84.6527","MEAN_MOTION_DOT":"0.00001658","BSTAR":"0.00013022000000","DECAY_DATE":null,"MEAN_MOTION_DDOT":"0.0000000000000","OBJECT_TYPE":"PAYLOAD","EPOCH":"2022-07-06T12:56:30.288480","COUNTRY_CODE":"US","APOAPSIS":"548.301","ELEMENT_SET_NO":"999","REV_AT_EPOCH":"12771","MEAN_ELEMENT_THEORY":"SGP4","FILE":"3508782","CLASSIFICATION_TYPE":"U","PERIOD":"95.592","NORAD_CAT_ID":"45384","LAUNCH_DATE":"2020-03-18","OBJECT_NAME":"STARLINK-1267","EPHEMERIS_TYPE":"0","SITE":"AFETR","INCLINATION":"53.0559","TLE_LINE1":"1 45384U 20019AA  22187.53923945  .00001658  00000-0  13022-3 0  9997","PERIAPSIS":"546.150","GP_ID":"207537394","MEAN_MOTION":"15.06396072","RA_OF_ASC_NODE":"51.7676","REF_FRAME":"TEME","ECCENTRICITY":"0.00015530","MEAN_ANOMALY":"275.4639"},{"ECCENTRICITY":"0.00013990","MEAN_ANOMALY":"281.2454","REF_FRAME":"TEME","MEAN_MOTION":"15.06392493","RA_OF_ASC_NODE":"52.6539","GP_ID":"207537645","PERIAPSIS":"546.268","TLE_LINE1":"1 45386U 20019AC  22187.34484012  .00002463  00000-0  18422-3 0  9999","INCLINATION":"53.0560","SITE":"AFETR","EPHEMERIS_TYPE":"0","LAUNCH_DATE":"2020-03-18","OBJECT_NAME":"STARLINK-1272","FILE":"3508782","PERIOD":"95.593","CLASSIFICATION_TYPE":"U","NORAD_CAT_ID":"45386","ELEMENT_SET_NO":"999","APOAPSIS":"548.205","MEAN_ELEMENT_THEORY":"SGP4","REV_AT_EPOCH":"12768","COUNTRY_CODE":"US","EPOCH":"2022-07-06T08:16:34.186368","OBJECT_TYPE":"PAYLOAD","MEAN_MOTION_DDOT":"0.0000000000000","DECAY_DATE":null,"BSTAR":"0.00018422000000","MEAN_MOTION_DOT":"0.00002463","ARG_OF_PERICENTER":"78.8692","TIME_SYSTEM":"UTC","TLE_LINE2":"2 45386  53.0560  52.6539 0001399  78.8692 281.2454 15.06392493127681","OBJECT_ID":"2020-019AC","SEMIMAJOR_AXIS":"6925.372","RCS_SIZE":"LARGE","CENTER_NAME":"EARTH"},{"PERIAPSIS":"546.162","GP_ID":"207536393","TLE_LINE1":"1 45387U 20019AD  22187.56599138  .00000552  00000-0  55990-4 0  9999","ECCENTRICITY":"0.00015790","MEAN_ANOMALY":"278.7503","RA_OF_ASC_NODE":"51.6457","MEAN_MOTION":"15.06386242","REF_FRAME":"TEME","REV_AT_EPOCH":"12771","MEAN_ELEMENT_THEORY":"SGP4","APOAPSIS":"548.349","ELEMENT_SET_NO":"999","PERIOD":"95.593","CLASSIFICATION_TYPE":"U","NORAD_CAT_ID":"45387","FILE":"3508782","COUNTRY_CODE":"US","SITE":"AFETR","INCLINATION":"53.0552","OBJECT_NAME":"STARLINK-1274","LAUNCH_DATE":"2020-03-18","EPHEMERIS_TYPE":"0","DECAY_DATE":null,"EPOCH":"2022-07-06T13:35:01.655232","OBJECT_TYPE":"PAYLOAD","MEAN_MOTION_DDOT":"0.0000000000000","OBJECT_ID":"2020-019AD","TLE_LINE2":"2 45387  53.0552  51.6457 0001579  81.3665 278.7503 15.06386242127715","ARG_OF_PERICENTER":"81.3665","TIME_SYSTEM":"UTC","CENTER_NAME":"EARTH","SEMIMAJOR_AXIS":"6925.391","RCS_SIZE":"LARGE","MEAN_MOTION_DOT":"0.00000552","BSTAR":"0.00005599000000"},{"OBJECT_TYPE":"PAYLOAD","EPOCH":"2022-07-06T09:38:49.917696","MEAN_MOTION_DDOT":"0.0000000000000","DECAY_DATE":null,"MEAN_MOTION_DOT":"0.00001302","BSTAR":"0.00010627000000","OBJECT_ID":"2020-019AE","TLE_LINE2":"2 45388  53.0556  72.3795 0001381  77.8612 282.2531 15.06397927127407","ARG_OF_PERICENTER":"77.8612","TIME_SYSTEM":"UTC","CENTER_NAME":"EARTH","SEMIMAJOR_AXIS":"6925.355","RCS_SIZE":"LARGE","ECCENTRICITY":"0.00013810","MEAN_ANOMALY":"282.2531","RA_OF_ASC_NODE":"72.3795","MEAN_MOTION":"15.06397927","REF_FRAME":"TEME","PERIAPSIS":"546.264","GP_ID":"207536643","TLE_LINE1":"1 45388U 20019AE  22187.40196664  .00001302  00000-0  10627-3 0  9991","SITE":"AFETR","INCLINATION":"53.0556","OBJECT_NAME":"STARLINK-1280","LAUNCH_DATE":"2020-03-18","EPHEMERIS_TYPE":"0","REV_AT_EPOCH":"12740","MEAN_ELEMENT_THEORY":"SGP4","ELEMENT_SET_NO":"999","APOAPSIS":"548.176","PERIOD":"95.592","CLASSIFICATION_TYPE":"U","NORAD_CAT_ID":"45388","FILE":"3508782","COUNTRY_CODE":"US"},{"MEAN_MOTION_DOT":"0.00001043","BSTAR":"0.00008890500000","OBJECT_ID":"2020-019AF","TLE_LINE2":"2 45389  53.0554  52.7851 0001679  70.6993 289.4177 15.06394717127683","TIME_SYSTEM":"UTC","ARG_OF_PERICENTER":"70.6993","CENTER_NAME":"EARTH","SEMIMAJOR_AXIS":"6925.365","RCS_SIZE":"LARGE","OBJECT_TYPE":"PAYLOAD","EPOCH":"2022-07-06T07:34:06.056832","MEAN_MOTION_DDOT":"0.0000000000000","DECAY_DATE":null,"SITE":"AFETR","INCLINATION":"53.0554","OBJECT_NAME":"STARLINK-1283","LAUNCH_DATE":"2020-03-18","EPHEMERIS_TYPE":"0","REV_AT_EPOCH":"12768","MEAN_ELEMENT_THEORY":"SGP4","ELEMENT_SET_NO":"999","APOAPSIS":"548.393","CLASSIFICATION_TYPE":"U","PERIOD":"95.592","NORAD_CAT_ID":"45389","FILE":"3508782","COUNTRY_CODE":"US","MEAN_ANOMALY":"289.4177","ECCENTRICITY":"0.00016790","MEAN_MOTION":"15.06394717","RA_OF_ASC_NODE":"52.7851","REF_FRAME":"TEME","PERIAPSIS":"546.067","GP_ID":"207536895","TLE_LINE1":"1 45389U 20019AF  22187.31534788  .00001043  00000-0  88905-4 0  9992"},{"TLE_LINE1":"1 45390U 20019AG  22187.35588889  .00001137  00000-0  95283-4 0  9990","PERIAPSIS":"546.057","GP_ID":"207537146","RA_OF_ASC_NODE":"52.5837","MEAN_MOTION":"15.06388117","REF_FRAME":"TEME","MEAN_ANOMALY":"283.2261","ECCENTRICITY":"0.00017230","COUNTRY_CODE":"US","APOAPSIS":"548.443","ELEMENT_SET_NO":"999","REV_AT_EPOCH":"12768","MEAN_ELEMENT_THEORY":"SGP4","FILE":"3508782","PERIOD":"95.593","CLASSIFICATION_TYPE":"U","NORAD_CAT_ID":"45390","LAUNCH_DATE":"2020-03-18","OBJECT_NAME":"STARLINK-1284","EPHEMERIS_TYPE":"0","SITE":"AFETR","INCLINATION":"53.0541","DECAY_DATE":null,"MEAN_MOTION_DDOT":"0.0000000000000","EPOCH":"2022-07-06T08:32:28.800096","OBJECT_TYPE":"PAYLOAD","CENTER_NAME":"EARTH","SEMIMAJOR_AXIS":"6925.385","RCS_SIZE":"LARGE","TLE_LINE2":"2 45390  53.0541  52.5837 0001723  76.8920 283.2261 15.06388117127684","OBJECT_ID":"2020-019AG","ARG_OF_PERICENTER":"76.8920","TIME_SYSTEM":"UTC","BSTAR":"0.00009528300000","MEAN_MOTION_DOT":"0.00001137"},{"RCS_SIZE":"LARGE","SEMIMAJOR_AXIS":"6925.375","CENTER_NAME":"EARTH","ARG_OF_PERICENTER":"77.2853","TIME_SYSTEM":"UTC","OBJECT_ID":"2020-019AH","TLE_LINE2":"2 45391  53.0561  50.1396 0001403  77.2853 282.8293 15.06391300127493","MEAN_MOTION_DOT":"0.00002384","BSTAR":"0.00017890000000","DECAY_DATE":null,"MEAN_MOTION_DDOT":"0.0000000000000","EPOCH":"2022-07-06T21:36:40.953600","OBJECT_TYPE":"PAYLOAD","COUNTRY_CODE":"US","NORAD_CAT_ID":"45391","PERIOD":"95.593","CLASSIFICATION_TYPE":"U","FILE":"3508862","REV_AT_EPOCH":"12749","MEAN_ELEMENT_THEORY":"SGP4","APOAPSIS":"548.212","ELEMENT_SET_NO":"999","EPHEMERIS_TYPE":"0","OBJECT_NAME":"STARLINK-1289","LAUNCH_DATE":"2020-03-18","INCLINATION":"53.0561","SITE":"AFETR","TLE_LINE1":"1 45391U 20019AH  22187.90047400  .00002384  00000-0  17890-3 0  9993","GP_ID":"207544312","PERIAPSIS":"546.269","REF_FRAME":"TEME","MEAN_MOTION":"15.06391300","RA_OF_ASC_NODE":"50.1396","ECCENTRICITY":"0.00014030","MEAN_ANOMALY":"282.8293"}];
